# From MPEC 2022-K19
243P/NEAT,e,7.6442,87.6481,283.6961,3.827347,0.1316307,0.36039710,308.3357,01/29.0/2025,2000,g 12.5,4.0
# From MPEC 2024-L77
244P/Scotti,e,2.2579,354.0096,93.4369,4.903389,0.0907736,0.19989154,72.7356,01/29.0/2025,2000,g  9.0,4.0
# From MPEC 2022-CN4
245P/WISE,e,21.1721,316.8867,316.5143,4.051878,0.1208425,0.45572007,308.4908,01/29.0/2025,2000,g 14.0,4.0
# From MPEC 2024-YC7
246P/NEAT,e,17.6740,74.2494,185.7040,4.257578,0.1121915,0.23166175,168.4367,01/29.0/2025,2000,g 10.5,4.0
# From MPEC 2021-F20
247P/LINEAR,e,13.6582,53.9964,47.4824,3.964490,0.1248599,0.62555449,280.7206,01/29.0/2025,2000,g 16.5,2.0
# From MPC 75730
248P/Gibbs,e,6.3518,207.8080,209.9732,5.982224,0.0673612,0.63929114,344.5801,01/29.0/2025,2000,g 14.0,4.0
# From MPEC 2022-YN2
249P/LINEAR,e,8.3854,239.0429,65.7432,2.765017,0.2143667,0.81934901,359.2081,01/29.0/2025,2000,g 15.5,4.0
# From MPEC 2025-A40
250P/Larson,e,13.1530,73.3055,45.7218,3.779331,0.1341472,0.39877067,345.5420,01/29.0/2025,2000,g 14.5,4.0
# From MPEC 2024-TD8
251P/LINEAR,e,23.3875,219.3386,31.1989,3.512257,0.1497355,0.50425910,52.5297,01/29.0/2025,2000,g 16.5,2.0
# From MPEC 2021-S45
252P/LINEAR,e,10.4187,190.9058,343.3757,3.051233,0.1849230,0.67096907,240.2047,01/29.0/2025,2000,g 17.5,4.0
# From MPEC 2025-AH4
253P/PANSTARRS,e,4.9440,146.8591,230.8308,3.463548,0.1529052,0.41482096,15.2897,01/29.0/2025,2000,g 14.5,4.0
# From MPEC 2024-EF7
254P/McNaught,e,32.5404,129.1814,219.7439,4.619682,0.0992627,0.31862371,157.1277,01/29.0/2025,2000,g 11.0,4.0
# From NK 2214
255P/Levy,e,13.4053,275.6366,186.0398,2.942322,0.1952849,0.71203480,170.6894,01/29.0/2025,2000,g  9.0,4.0
# From MPEC 2024-L77
256P/LINEAR,e,27.6243,81.3289,124.0812,4.635616,0.0987513,0.41792100,68.0473,01/29.0/2025,2000,g 14.0,2.0
# From MPEC 2023-A50
257P/Catalina,e,20.2172,207.7244,117.7495,3.767469,0.1347813,0.42886356,216.0891,01/29.0/2025,2000,g 11.5,4.0
# From MPEC 2021-U31
258P/PANSTARRS,e,6.7510,126.2354,25.5894,4.389448,0.1071740,0.20939044,180.7091,01/29.0/2025,2000,g 13.0,4.0
# From MPC106349
259P/Garradd,e,15.8984,51.3713,257.5074,2.729164,0.2186048,0.33872983,237.5338,01/29.0/2025,2000,g 15.5,4.0
# From MPEC 2022-O01
260P/McNaught,e,15.0443,349.3134,18.4919,3.623459,0.1428956,0.60887861,280.9865,01/29.0/2025,2000,g 13.5,4.0
# From MPEC 2021-J28
261P/Larson,e,6.0732,291.0510,67.3667,3.489847,0.1511801,0.42287452,309.7527,01/29.0/2025,2000,g 14.0,4.0
# From MPC 82322
262P/McNaught-Russell,e,29.2615,217.8880,171.0704,6.869195,0.0547451,0.81612119,242.5379,01/29.0/2025,2000,g 13.5,4.0
# From MPEC 2024-L77
263P/Gibbs,e,11.5266,105.5037,35.0193,3.040965,0.1858604,0.59396403,135.5311,01/29.0/2025,2000,g 18.0,4.0
# From MPC114608
264P/Larsen,e,25.2129,219.2678,341.1391,4.026709,0.1219772,0.34092491,265.3972,01/29.0/2025,2000,g 13.0,4.0
# From MPC 79870
265P/LINEAR,e,14.3443,342.9302,33.5541,4.260308,0.1120837,0.64692140,162.5249,01/29.0/2025,2000,g 14.5,4.0
# From MPEC 2021-F20
266P/Christensen,e,3.4280,4.9496,97.7643,3.528402,0.1487089,0.34088979,259.2842,01/29.0/2025,2000,g 14.7,4.0
# From MPC114608
267P/LONEOS,e,6.1415,228.5870,114.2226,3.209970,0.1713771,0.61456742,47.8396,01/29.0/2025,2000,g 19.5,4.0
# From MPEC 2025-AE4
268P/Bernardi,e,15.6612,125.6320,0.0123,4.591848,0.1001666,0.47458324,4.1599,01/29.0/2025,2000,g 14.0,4.0
# From MPEC 2023-J29
269P/Jedicke,e,7.0845,241.7722,225.7023,7.059313,0.0525485,0.43339776,197.8831,01/29.0/2025,2000,g 10.0,4.0
# From MPC 88332
270P/Gehrels,e,2.9251,223.0349,209.8995,6.650017,0.0574738,0.47020867,243.5970,01/29.0/2025,2000,g  8.0,4.0
# From MPC 92277
271P/van Houten-Lemmon,e,6.8677,9.2938,36.5930,7.032150,0.0528533,0.39604951,222.1631,01/29.0/2025,2000,g 11.0,4.0
# From MPEC 2023-D41
272P/NEAT,e,18.0813,109.4395,27.8817,4.461808,0.1045774,0.45542250,96.9077,01/29.0/2025,2000,g 16.0,2.0
# From MPC 82723
273P/Pons-Gambart,e,136.4181,320.3899,20.1483,31.95403,0.0054565,0.97449962,0.0000,12/22.3217/2012,2000,g 11.5,4.0
# From MPEC 2024-GJ3
274P/Tombaugh-Tenagra,e,15.8213,81.3180,38.4814,4.378218,0.1075866,0.44019485,110.3846,01/29.0/2025,2000,g 13.0,4.0
# From MPC 81862
275P/Hermann,e,21.2554,348.6883,173.8997,5.793976,0.0706706,0.71364276,314.9774,01/29.0/2025,2000,g 17.0,4.0
# From MPEC 2025-AH4
276P/Vorobjov,e,14.7948,211.3267,199.2750,5.354991,0.0795364,0.27195184,3.9155,01/29.0/2025,2000,g 11.5,4.0
# From MPEC 2021-F20
277P/LINEAR,e,16.7926,276.2605,152.4274,3.853520,0.1302920,0.50647352,194.0608,01/29.0/2025,2000,g 15.1,4.0
# From MPEC 2021-S45
278P/McNaught,e,6.6290,14.0254,238.7466,3.654322,0.1410893,0.44713026,224.3015,01/29.0/2025,2000,g 14.0,4.0
# From MPEC 2024-A43
279P/LaSagra,e,5.0516,346.1092,5.6729,3.569293,0.1461608,0.39935001,95.1694,01/29.0/2025,2000,g 14.0,4.0
# From MPEC 2024-RQ6
280P/Larsen,e,11.7751,131.3770,104.6623,4.525247,0.1023860,0.41678409,55.6536,01/29.0/2025,2000,g 12.5,4.0
# From MPEC 2023-D41
281P/MOSS,e,4.7177,87.1654,26.9309,4.885504,0.0912725,0.17389177,66.2062,01/29.0/2025,2000,g 11.0,4.0
# From MPC133426
282P/,e,5.8131,217.6092,9.1372,4.235920,0.1130531,0.18761508,134.9855,01/29.0/2025,2000,g 13.5,2.0
# From MPEC 2022-K19
283P/Spacewatch,e,14.4662,161.1218,22.1456,4.132221,0.1173353,0.48477678,145.3814,01/29.0/2025,2000,g 16.0,2.0
# From MPEC 2024-D33
284P/McNaught,e,11.8540,144.2662,202.4756,3.678554,0.1396974,0.37444943,172.5749,01/29.0/2025,2000,g 13.0,4.0
# From MPEC 2024-L77
285P/LINEAR,e,25.0345,185.5108,178.3919,4.505713,0.1030526,0.61818394,77.0868,01/29.0/2025,2000,g 15.0,4.0
# From MPEC 2024-LE0
286P/Christensen,e,17.1829,283.5766,24.3206,4.088132,0.1192385,0.42895029,118.4079,01/29.0/2025,2000,g 14.0,4.0
# From MPEC 2025-A40
287P/Christensen,e,16.3182,138.8557,189.8714,4.178845,0.1153771,0.27272145,65.7828,01/29.0/2025,2000,g 13.5,4.0
# From MPC133426
288P/,e,3.2383,83.1049,280.3068,3.050101,0.1850260,0.19976916,197.0066,01/29.0/2025,2000,g 16.0,2.0
# From MPEC 2024-O39
289P/Blanpain,e,5.9003,68.8914,9.8792,3.043831,0.1855980,0.68646754,346.0207,01/29.0/2025,2000,g 19.0,4.0
# From MPC 95214
290P/Jager,e,20.0476,302.6760,181.8430,6.214536,0.0636196,0.62816024,255.9667,01/29.0/2025,2000,g 10.5,4.0
# From MPEC 2024-YC7
291P/NEAT,e,6.3098,237.6589,173.5516,4.534589,0.1020698,0.43398917,64.9112,01/29.0/2025,2000,g 13.0,4.0
# From MPEC 2022-K19
292P/Li,e,24.3225,90.8953,319.6539,6.096436,0.0654772,0.58998111,262.1493,01/29.0/2025,2000,g 12.5,4.0
# From MPEC 2022-L66
293P/Spacewatch,e,9.0614,78.3660,40.9665,3.638035,0.1420377,0.41944547,213.1288,01/29.0/2025,2000,g 14.5,4.0
# From MPEC 2025-AH4
294P/LINEAR,e,17.7398,309.6070,237.5654,3.191814,0.1728414,0.60113150,326.4385,01/29.0/2025,2000,g 15.5,4.0
# From MPEC 2022-K19
295P/LINEAR,e,21.0826,7.3859,73.0234,5.299940,0.0807788,0.61766345,316.4036,01/29.0/2025,2000,g 12.0,4.0
# From MPEC 2021-N06
296P/Garradd,e,25.3784,263.5312,350.0284,3.478360,0.1519296,0.48421103,241.3108,01/29.0/2025,2000,g 14.0,4.0
# From MPC102956
297P/Beshore,e,11.2047,92.2290,142.1269,3.556861,0.1469277,0.29222733,215.7724,01/29.0/2025,2000,g 15.0,4.0
# From MPC114609
298P/Christensen,e,7.8717,52.7911,100.6058,3.588474,0.1449905,0.38678614,232.8615,01/29.0/2025,2000,g 15.0,4.0
# From MPEC 2024-TD8
299P/Catalina-PANSTARRS,e,10.4691,271.5808,323.6376,4.388944,0.1071924,0.28090360,29.3603,01/29.0/2025,2000,g 11.5,4.0
# From MPEC 2023-VM5
300P/Catalina,e,5.6764,95.6205,222.8923,2.696701,0.2225639,0.69192014,146.6618,01/29.0/2025,2000,g 16.0,4.0
# From MPC 89014
301P/LINEAR-NEAT,e,10.3291,351.0651,193.4453,5.750549,0.0714727,0.58607847,273.9151,01/29.0/2025,2000,g 13.0,4.0
# From MPEC 2024-YC7
302P/Lemmon-PANSTARRS,e,6.0356,121.7151,208.6335,4.268034,0.1117795,0.22947444,355.5914,01/29.0/2025,2000,g 12.5,4.0
# From MPC 92278
303P/NEAT,e,7.0162,347.9550,357.0296,5.040170,0.0871036,0.51034357,326.2986,01/29.0/2025,2000,g 13.5,4.0
# From MPEC 2022-K19
304P/Ory,e,2.6059,58.9400,335.2768,3.149833,0.1763083,0.60090583,287.1548,01/29.0/2025,2000,g 16.5,4.0
# From MPEC 2025-AH4
305P/Skiff,e,11.6716,240.1046,147.4210,4.637274,0.0986983,0.69408145,7.1898,01/29.0/2025,2000,g 18.0,4.0
# From MPC 92278
306P/LINEAR,e,8.3028,341.3551,0.8976,3.124457,0.1784606,0.59259860,327.0478,01/29.0/2025,2000,g 19.0,4.0
# From MPC 92278
307P/LINEAR,e,4.4351,158.1283,222.2448,5.787772,0.0707843,0.67516981,260.6893,01/29.0/2025,2000,g 15.0,4.0
# From MPEC 2022-C56
308P/Lagerkvist-Carsenty,e,4.8528,63.0979,333.7527,6.600443,0.0581225,0.36438210,206.1149,01/29.0/2025,2000,g 13.0,2.0
# From MPEC 2024-BE0
309P/LINEAR,e,17.0210,10.1376,49.9120,4.374655,0.1077180,0.61828524,32.9650,01/29.0/2025,2000,g 15.0,4.0
# From MPEC 2024-LE0
310P/Hill,e,13.1200,8.8839,31.5286,4.181661,0.1152606,0.42219291,53.4543,01/29.0/2025,2000,g 13.5,4.0
# From MPEC 2024-A43
311P/PANSTARRS,e,4.9712,279.1694,144.2601,2.188468,0.3044344,0.11558571,119.6844,01/29.0/2025,2000,g 17.0,4.0
# From MPEC 2024-NE4
312P/NEAT,e,19.7472,144.6418,207.7084,3.471985,0.1523482,0.42679754,241.8635,01/29.0/2025,2000,g 16.0,4.0
# From MPEC 2024-N80
313P/Gibbs,e,10.9809,105.9253,254.9803,3.163571,0.1751611,0.23454878,306.1025,01/29.0/2025,2000,g 15.0,4.0
# From MPC105243
314P/Montani,e,3.9921,267.6233,213.8495,7.249483,0.0504944,0.41843470,153.0178,01/29.0/2025,2000,g  9.5,4.0
# From MPEC 2023-J29
315P/LONEOS,e,17.7335,68.6549,65.8785,4.937118,0.0898450,0.52196541,268.2173,01/29.0/2025,2000,g 11.0,4.0
# From MPEC 2024-NE4
316P/LONEOS-Christensen,e,9.8830,245.9242,187.5997,4.418440,0.1061208,0.15816000,11.8736,01/29.0/2025,2000,g 13.5,4.0
# From MPEC 2020-C98
317P/WISE,e,11.9744,275.4716,334.8740,2.959830,0.1935548,0.57195741,306.7977,01/29.0/2025,2000,g 17.5,4.0
# From MPC102103
318P/McNaught-Hartley,e,17.8685,35.5896,313.3195,7.513604,0.0478555,0.67355216,162.0051,01/29.0/2025,2000,g  8.5,6.0
# From MPC 97499
319P/Catalina-McNaught,e,15.0944,111.3459,203.6294,3.562902,0.1465542,0.66627930,151.7189,01/29.0/2025,2000,g 15.0,4.0
# From MPC 96281
320P/McNaught,e,4.9025,295.9387,0.7610,3.095718,0.1809514,0.68480781,266.8227,01/29.0/2025,2000,g 20.5,4.0
# From MPC105243
